STARLINK-34336          
1 64462C 25130AA  26104.96784722  .00045345  00000+0  15282-2 0  1049
2 64462  53.1574 282.5745 0000954  80.8262 168.5692 15.30170645    16
STARLINK-34400          
1 64463C 25130AB  26105.03798611 -.00000130  00000+0 -43729-5 0  1057
2 64463  53.1572 282.2451 0001226  84.3727 226.4520 15.30196125    19
STARLINK-34429          
1 64464C 25130AC  26105.03868056 -.00003637  00000+0 -12257-3 0  1054
2 64464  53.1582 279.6221 0001171  78.0594 123.7931 15.30195183    15
STARLINK-34449          
1 64465C 25130AD  26105.01298611  .00015694  00000+0  52885-3 0  1052
2 64465  53.1591 279.9332 0001046  69.3398 252.0209 15.30189030    16
STARLINK-34493          
1 64472C 25133A   26105.01090278  .00047824  00000+0  16119-2 0  1051
2 64472  53.1579 308.3219 0001207  84.1764   7.0857 15.30166239    15
STARLINK-34492          
1 64473C 25133B   26104.97965278  .00072408  00000+0  24381-2 0  1042
2 64473  53.1578 308.4321 0001472  79.6386 216.8227 15.30185136    11
STARLINK-34474          
1 64474C 25133C   26104.99145833  .00037001  00000+0  12472-2 0  1040
2 64474  53.1581 308.3423 0001211  86.7371 292.2443 15.30170193    17
STARLINK-34523          
1 64475C 25133D   26104.97895833  .00042845  00000+0  14439-2 0  1048
2 64475  53.1583 308.3303 0001124  86.1640 258.8164 15.30173234    10
STARLINK-34496          
1 64476C 25133E   26105.01437500  .00044772  00000+0  15091-2 0  1055
2 64476  53.1582 308.0971 0001216  82.3439 132.7517 15.30167617    14
STARLINK-34375          
1 64477C 25133F   26104.99909722  .00048574  00000+0  16371-2 0  1047
2 64477  53.1586 308.0987 0001190  81.7848  83.9994 15.30167953    13
STARLINK-34490          
1 64478C 25133G   26104.98034722  .00047618  00000+0  16049-2 0  1046
2 64478  53.1594 308.0700 0001317  80.3247  40.2786 15.30168012    17
STARLINK-34528          
1 64479C 25133H   26104.97131944  .00033026  00000+0  11132-2 0  1046
2 64479  53.1592 308.1470 0001047  81.0677 332.3299 15.30173457    19
STARLINK-34518          
1 64480C 25133J   26104.99979167  .00052472  00000+0  17686-2 0  1043
2 64480  53.1590 307.9454 0001280  79.4654 165.7441 15.30164119    15
STARLINK-34526          
1 64481C 25133K   26105.02131944  .00047135  00000+0  15883-2 0  1050
2 64481  53.1590 307.8102 0001297  78.5118 302.8125 15.30174852    16
STARLINK-34527          
1 64482C 25133L   26105.02826389 -.00089481  00000+0 -30122-2 0  1050
2 64482  53.1590 307.6741 0001217  78.3199  33.6867 15.30274620    19
STARLINK-34420          
1 64483C 25133M   26105.04076389  .00040832  00000+0  13761-2 0  1055
2 64483  53.1586 307.5469 0001340  77.1970 138.5557 15.30173965    13
STARLINK-34509          
1 64484C 25133N   26104.98590278  .00039227  00000+0  13221-2 0  1042
2 64484  53.1582 308.4789 0001247  85.8473 204.3576 15.30170769    17
STARLINK-34409          
1 64485C 25133P   26105.01576389  .00051934  00000+0  17506-2 0  1055
2 64485  53.1579 308.3167 0001188  83.2686  23.1386 15.30161736    15
STARLINK-34520          
1 64486C 25133Q   26104.98034722  .00043035  00000+0  14504-2 0  1048
2 64486  53.1578 308.4466 0001245  83.9817 204.6812 15.30170024    15
STARLINK-34477          
1 64487C 25133R   26104.96993056  .00035157  00000+0  11850-2 0  1048
2 64487  53.1581 308.4592 0001243  85.2347 163.4678 15.30171709    14
STARLINK-34217          
1 64488C 25133S   26105.00743056  .00021636  00000+0  72977-3 0  1054
2 64488  53.1579 308.2500 0001171  80.3017  32.5390 15.30156531    12
STARLINK-34307          
1 64489C 25133T   26104.96159722  .00042490  00000+0  14329-2 0  1046
2 64489  53.1582 308.4277 0000955  87.3959 150.2115 15.30152231    17
STARLINK-34505          
1 64490C 25133U   26105.02270833  .00040711  00000+0  13724-2 0  1056
2 64490  53.1580 308.1094 0000907  92.9372 139.0122 15.30165865    19
STARLINK-34530          
1 64491C 25133V   26104.96298611  .00025096  00000+0  84601-3 0  1044
2 64491  53.1584 308.3519 0001241  80.4333 199.7918 15.30171735    18
STARLINK-34522          
1 64492C 25133W   26104.96020833  .00031446  00000+0  10599-2 0  1044
2 64492  53.1586 308.3302 0001255  81.9930 200.3687 15.30173843    19
STARLINK-34462          
1 64493C 25133X   26104.96645833  .00027997  00000+0  94362-3 0  1045
2 64493  53.1585 308.2665 0001178  84.0557 250.2033 15.30176714    12
STARLINK-34226          
1 64494C 25133Y   26104.99701389  .00043384  00000+0  14623-2 0  1047
2 64494  53.1585 308.0902 0000852  75.7498  84.3776 15.30168468    11
STARLINK-34364          
1 64495C 25133Z   26105.01368056  .00044228  00000+0  14905-2 0  1054
2 64495  53.1585 305.8425 0001158  80.1052 180.6283 15.30171724    15
STARLINK-34268          
1 64496C 25133AA  26104.96645833  .02116100  00000+0  18505-1 0  1048
2 64496  53.1596 306.7366 0001392  71.6877 314.3200 15.67208511    12
STARLINK-34363          
1 64497C 25133AB  26104.97895833  .00049685  00000+0  16745-2 0  1043
2 64497  53.1591 308.0921 0001500  82.7028  18.6164 15.30167830    13
STARLINK-34427          
1 64498C 25133AC  26104.95534722  .00028759  00000+0  96930-3 0  1043
2 64498  53.1594 308.1669 0001323  83.7063 264.9262 15.30176314    12
STARLINK-34280          
1 64594C 25137A   26104.96506944  .00011047  00000+0  37241-3 0  1042
2 64594  53.1566 166.7325 0001065  94.8733  97.6484 15.30178636    11
STARLINK-34517          
1 64595C 25137B   26104.96993056  .00010741  00000+0  36204-3 0  1045
2 64595  53.1579 166.9117 0001125  85.5166  29.1109 15.30183600    12
STARLINK-34510          
1 64596C 25137C   26105.04145833  .00017648  00000+0  59485-3 0  1058
2 64596  53.1569 166.5233 0001194  92.6883  85.2648 15.30179385    14
STARLINK-34486          
1 64597C 25137D   26105.03312500  .00017371  00000+0  58556-3 0  1056
2 64597  53.1597 166.8232 0001113  88.1631 270.0879 15.30177792    10
STARLINK-34463          
1 64598C 25137E   26104.96993056  .00010084  00000+0  33991-3 0  1048
2 64598  53.1595 167.0351 0001122  87.5326 323.1158 15.30182399    17
STARLINK-34294          
1 64599C 25137F   26105.00187500  .00020914  00000+0  70493-3 0  1056
2 64599  53.1572 166.7174 0001176  93.2700 220.6941 15.30178511    13
STARLINK-34504          
1 64600C 25137G   26104.97062500  .00000981  00000+0  33066-4 0  1043
2 64600  53.1594 167.0947 0001149  81.2541 304.1341 15.30186507    18
STARLINK-34508          
1 64601C 25137H   26105.01993056  .00014161  00000+0  47734-3 0  1051
2 64601  53.1573 166.3716 0001011  91.9191  95.3449 15.30180212    14
STARLINK-34435          
1 64602C 25137J   26105.02340278  .00035328  00000+0  11908-2 0  1056
2 64602  53.1569 166.5811 0001111  83.7968   6.2755 15.30170921    17
STARLINK-34475          
1 64603C 25137K   26105.03243056 -.00015734  00000+0 -53028-3 0  1055
2 64603  53.1569 166.4707 0000898  92.3228  82.4041 15.30200003    16
STARLINK-34488          
1 64604C 25137L   26105.00187500  .00059827  00000+0  20170-2 0  1054
2 64604  53.1578 166.4213 0001175 101.0345   4.0514 15.30151457    19
STARLINK-34516          
1 64605C 25137M   26104.99840278  .00008969  00000+0  30234-3 0  1043
2 64605  53.1589 166.3086 0001054  79.7935  70.2449 15.30182905    15
STARLINK-34073          
1 64606C 25137N   26104.95465278  .00000626  00000+0  21107-4 0  1045
2 64606  53.1584 166.5905 0001141  84.1071 144.0694 15.30190415    18
STARLINK-34532          
1 64607C 25137P   26104.98659722 -.00015063  00000+0 -50772-3 0  1040
2 64607  53.1579 176.7952 0001039  86.8893 108.4565 15.30196877    14
STARLINK-34519          
1 64608C 25137Q   26104.99770833  .00017465  00000+0  58871-3 0  1043
2 64608  53.1564 166.5428 0001029  91.5696 298.3101 15.30179129    13
STARLINK-34513          
1 64609C 25137R   26104.98659722  .00014599  00000+0  49207-3 0  1044
2 64609  53.1570 166.5598 0001049  95.3414 250.7427 15.30181658    14
STARLINK-34569          
1 64610C 25137S   26104.96715278  .00007743  00000+0  26097-3 0  1048
2 64610  53.1584 166.9686 0001229  81.4456 354.6042 15.30186185    12
STARLINK-34494          
1 64611C 25137T   26105.03312500  .00026775  00000+0  90252-3 0  1050
2 64611  53.1564 166.4444 0001134 107.3834  82.8046 15.30175017    17
STARLINK-34521          
1 64612C 25137U   26104.96576389 -.00018896  00000+0 -63696-3 0  1047
2 64612  53.1570 166.6424 0000986  90.3381 146.7420 15.30196997    13
STARLINK-34500          
1 64613C 25137V   26105.03590278  .00034214  00000+0  11531-2 0  1051
2 64613  53.1573 166.5660 0001203  92.2492  43.4476 15.30175171    10
STARLINK-34440          
1 64614C 25137W   26104.96854167 -.00003084  00000+0 -10395-3 0  1043
2 64614  53.1570 166.7992 0001058  90.9754  74.1659 15.30189280    12
STARLINK-34469          
1 64615C 25137X   26104.96229167  .00012327  00000+0  41553-3 0  1048
2 64615  53.1589 166.5091 0000997  85.7731 207.7783 15.30181664    19
STARLINK-34413          
1 64616C 25137Y   26105.00395833 -.00001602  00000+0 -53987-4 0  1051
2 64616  53.1591 166.8516 0001243  78.1016 171.7272 15.30191850    16
STARLINK-34417          
1 64617C 25137Z   26104.95812500  .00015768  00000+0  53151-3 0  1047
2 64617  53.1563 154.0562 0001085  92.7896 267.6726 15.30179992    10
STARLINK-34415          
1 64618C 25137AA  26104.95812500  .00004274  00000+0  14407-3 0  1049
2 64618  53.1566 166.7438 0001019  95.6005  64.4702 15.30186153    11
STARLINK-34416          
1 64619C 25137AB  26104.98937500  .00034235  00000+0  11540-2 0  1045
2 64619  53.1576 166.5637 0001134  89.8490 259.9227 15.30169731    19
STARLINK-34414          
1 64620C 25137AC  26104.97618056  .00003198  00000+0  10779-3 0  1046
2 64620  53.1583 166.8850 0001139  91.0866  52.1779 15.30189793    11
STARLINK-34464          
1 64664C 25139A   26104.97548611  .00029146  00000+0  98223-3 0  1046
2 64664  53.1581 318.6613 0001229  86.5236  47.8684 15.30179716    11
